[{"OBJECT_NAME":"ONEWEB-0424","OBJECT_ID":"2021-132AE","EPOCH":"2026-06-26T11:01:48.621792","MEAN_MOTION":13.18686304,"ECCENTRICITY":0.0002202,"INCLINATION":87.9176,"RA_OF_ASC_NODE":333.6101,"ARG_OF_PERICENTER":98.4403,"MEAN_ANOMALY":261.6978,"EPHEMERIS_TYPE":0,"CLASSIFICATION_TYPE":"U","NORAD_CAT_ID":50497,"ELEMENT_SET_NO":999,"REV_AT_EPOCH":22286,"BSTAR":0.00019517,"MEAN_MOTION_DOT":9.0e-7,"MEAN_MOTION_DDOT":0},{"OBJECT_NAME":"ONEWEB-0426","OBJECT_ID":"2021-132AF","EPOCH":"2026-06-26T10:02:18.685248","MEAN_MOTION":13.18684708,"ECCENTRICITY":0.0001933,"INCLINATION":87.9176,"RA_OF_ASC_NODE":333.6093,"ARG_OF_PERICENTER":73.5517,"MEAN_ANOMALY":286.5828,"EPHEMERIS_TYPE":0,"CLASSIFICATION_TYPE":"U","NORAD_CAT_ID":50498,"ELEMENT_SET_NO":999,"REV_AT_EPOCH":22280,"BSTAR":7.0242e-5,"MEAN_MOTION_DOT":4.1e-7,"MEAN_MOTION_DDOT":0},{"OBJECT_NAME":"ONEWEB-0427","OBJECT_ID":"2021-132AG","EPOCH":"2026-06-26T16:27:10.207584","MEAN_MOTION":13.18686125,"ECCENTRICITY":0.000198,"INCLINATION":87.9179,"RA_OF_ASC_NODE":333.5452,"ARG_OF_PERICENTER":89.3463,"MEAN_ANOMALY":270.7896,"EPHEMERIS_TYPE":0,"CLASSIFICATION_TYPE":"U","NORAD_CAT_ID":50499,"ELEMENT_SET_NO":999,"REV_AT_EPOCH":22286,"BSTAR":0.0001788,"MEAN_MOTION_DOT":8.3e-7,"MEAN_MOTION_DDOT":0},{"OBJECT_NAME":"ONEWEB-0429","OBJECT_ID":"2021-132AH","EPOCH":"2026-06-26T16:07:44.183424","MEAN_MOTION":13.18687287,"ECCENTRICITY":0.0001771,"INCLINATION":87.9171,"RA_OF_ASC_NODE":333.5714,"ARG_OF_PERICENTER":97.7704,"MEAN_ANOMALY":262.363,"EPHEMERIS_TYPE":0,"CLASSIFICATION_TYPE":"U","NORAD_CAT_ID":50500,"ELEMENT_SET_NO":999,"REV_AT_EPOCH":22283,"BSTAR":0.00025019,"MEAN_MOTION_DOT":1.12e-6,"MEAN_MOTION_DDOT":0},{"OBJECT_NAME":"ONEWEB-0430","OBJECT_ID":"2021-132AJ","EPOCH":"2026-06-26T15:50:45.328704","MEAN_MOTION":13.18678192,"ECCENTRICITY":0.0001952,"INCLINATION":87.9174,"RA_OF_ASC_NODE":333.5724,"ARG_OF_PERICENTER":102.0668,"MEAN_ANOMALY":258.0683,"EPHEMERIS_TYPE":0,"CLASSIFICATION_TYPE":"U","NORAD_CAT_ID":50501,"ELEMENT_SET_NO":999,"REV_AT_EPOCH":22287,"BSTAR":-0.0019535,"MEAN_MOTION_DOT":-7.57e-6,"MEAN_MOTION_DDOT":0},{"OBJECT_NAME":"ONEWEB-0432","OBJECT_ID":"2021-132AK","EPOCH":"2026-06-26T17:08:59.990208","MEAN_MOTION":13.17155469,"ECCENTRICITY":0.0002374,"INCLINATION":87.9175,"RA_OF_ASC_NODE":333.5449,"ARG_OF_PERICENTER":104.153,"MEAN_ANOMALY":255.9865,"EPHEMERIS_TYPE":0,"CLASSIFICATION_TYPE":"U","NORAD_CAT_ID":50502,"ELEMENT_SET_NO":999,"REV_AT_EPOCH":22283,"BSTAR":0.00018704,"MEAN_MOTION_DOT":8.5e-7,"MEAN_MOTION_DDOT":0},{"OBJECT_NAME":"ONEWEB-0440","OBJECT_ID":"2021-132AL","EPOCH":"2026-06-26T16:19:52.677984","MEAN_MOTION":13.18686557,"ECCENTRICITY":0.0001506,"INCLINATION":87.9179,"RA_OF_ASC_NODE":333.565,"ARG_OF_PERICENTER":93.7943,"MEAN_ANOMALY":266.3361,"EPHEMERIS_TYPE":0,"CLASSIFICATION_TYPE":"U","NORAD_CAT_ID":50503,"ELEMENT_SET_NO":999,"REV_AT_EPOCH":22282,"BSTAR":0.00020677,"MEAN_MOTION_DOT":9.4e-7,"MEAN_MOTION_DDOT":0},{"OBJECT_NAME":"ONEWEB-0450","OBJECT_ID":"2021-132AM","EPOCH":"2026-06-26T16:10:22.158912","MEAN_MOTION":13.18687059,"ECCENTRICITY":0.000179,"INCLINATION":87.9166,"RA_OF_ASC_NODE":333.5704,"ARG_OF_PERICENTER":100.5766,"MEAN_ANOMALY":259.5568,"EPHEMERIS_TYPE":0,"CLASSIFICATION_TYPE":"U","NORAD_CAT_ID":50504,"ELEMENT_SET_NO":999,"REV_AT_EPOCH":22285,"BSTAR":6.2824e-5,"MEAN_MOTION_DOT":3.8e-7,"MEAN_MOTION_DDOT":0},{"OBJECT_NAME":"ONEWEB-0410","OBJECT_ID":"2022-012A","EPOCH":"2026-06-26T11:33:21.142080","MEAN_MOTION":13.17648809,"ECCENTRICITY":0.0002755,"INCLINATION":87.9143,"RA_OF_ASC_NODE":4.0086,"ARG_OF_PERICENTER":64.251,"MEAN_ANOMALY":295.8906,"EPHEMERIS_TYPE":0,"CLASSIFICATION_TYPE":"U","NORAD_CAT_ID":51622,"ELEMENT_SET_NO":999,"REV_AT_EPOCH":21492,"BSTAR":6.2748e-5,"MEAN_MOTION_DOT":3.7e-7,"MEAN_MOTION_DDOT":0},{"OBJECT_NAME":"ONEWEB-0411","OBJECT_ID":"2022-012B","EPOCH":"2026-06-26T13:23:34.395936","MEAN_MOTION":13.10358479,"ECCENTRICITY":0.0001867,"INCLINATION":87.8836,"RA_OF_ASC_NODE":34.4003,"ARG_OF_PERICENTER":102.3332,"MEAN_ANOMALY":257.8004,"EPHEMERIS_TYPE":0,"CLASSIFICATION_TYPE":"U","NORAD_CAT_ID":51623,"ELEMENT_SET_NO":999,"REV_AT_EPOCH":21051,"BSTAR":0.0046611,"MEAN_MOTION_DOT":1.64e-5,"MEAN_MOTION_DDOT":0},{"OBJECT_NAME":"ONEWEB-0415","OBJECT_ID":"2022-012C","EPOCH":"2026-06-26T13:18:40.967712","MEAN_MOTION":13.10359458,"ECCENTRICITY":0.0001982,"INCLINATION":87.8846,"RA_OF_ASC_NODE":34.4016,"ARG_OF_PERICENTER":91.9662,"MEAN_ANOMALY":268.1692,"EPHEMERIS_TYPE":0,"CLASSIFICATION_TYPE":"U","NORAD_CAT_ID":51624,"ELEMENT_SET_NO":999,"REV_AT_EPOCH":21051,"BSTAR":0.0059563,"MEAN_MOTION_DOT":2.092e-5,"MEAN_MOTION_DDOT":0},{"OBJECT_NAME":"ONEWEB-0416","OBJECT_ID":"2022-012D","EPOCH":"2026-06-26T13:35:47.569056","MEAN_MOTION":13.10367045,"ECCENTRICITY":0.0002311,"INCLINATION":87.8837,"RA_OF_ASC_NODE":34.4154,"ARG_OF_PERICENTER":90.395,"MEAN_ANOMALY":269.7442,"EPHEMERIS_TYPE":0,"CLASSIFICATION_TYPE":"U","NORAD_CAT_ID":51625,"ELEMENT_SET_NO":999,"REV_AT_EPOCH":21055,"BSTAR":0.0043991,"MEAN_MOTION_DOT":1.548e-5,"MEAN_MOTION_DDOT":0},{"OBJECT_NAME":"ONEWEB-0422","OBJECT_ID":"2022-012E","EPOCH":"2026-06-26T11:47:56.016384","MEAN_MOTION":13.17649442,"ECCENTRICITY":0.0001312,"INCLINATION":87.914,"RA_OF_ASC_NODE":4.0077,"ARG_OF_PERICENTER":101.8717,"MEAN_ANOMALY":258.2561,"EPHEMERIS_TYPE":0,"CLASSIFICATION_TYPE":"U","NORAD_CAT_ID":51626,"ELEMENT_SET_NO":999,"REV_AT_EPOCH":21503,"BSTAR":4.8712e-5,"MEAN_MOTION_DOT":3.2e-7,"MEAN_MOTION_DDOT":0},{"OBJECT_NAME":"ONEWEB-0423","OBJECT_ID":"2022-012F","EPOCH":"2026-06-26T11:38:11.921280","MEAN_MOTION":13.17650841,"ECCENTRICITY":0.0001864,"INCLINATION":87.9133,"RA_OF_ASC_NODE":4.014,"ARG_OF_PERICENTER":86.1357,"MEAN_ANOMALY":273.9988,"EPHEMERIS_TYPE":0,"CLASSIFICATION_TYPE":"U","NORAD_CAT_ID":51627,"ELEMENT_SET_NO":999,"REV_AT_EPOCH":21492,"BSTAR":0.00014495,"MEAN_MOTION_DOT":6.9e-7,"MEAN_MOTION_DDOT":0},{"OBJECT_NAME":"ONEWEB-0425","OBJECT_ID":"2022-012G","EPOCH":"2026-06-26T13:50:27.267936","MEAN_MOTION":13.10359718,"ECCENTRICITY":0.0002057,"INCLINATION":87.8833,"RA_OF_ASC_NODE":34.397,"ARG_OF_PERICENTER":75.2579,"MEAN_ANOMALY":284.8776,"EPHEMERIS_TYPE":0,"CLASSIFICATION_TYPE":"U","NORAD_CAT_ID":51628,"ELEMENT_SET_NO":999,"REV_AT_EPOCH":21055,"BSTAR":0.0065738,"MEAN_MOTION_DOT":2.308e-5,"MEAN_MOTION_DDOT":0},{"OBJECT_NAME":"ONEWEB-0428","OBJECT_ID":"2022-012H","EPOCH":"2026-06-26T13:21:07.790688","MEAN_MOTION":13.10361132,"ECCENTRICITY":0.0001819,"INCLINATION":87.8825,"RA_OF_ASC_NODE":34.4086,"ARG_OF_PERICENTER":84.7558,"MEAN_ANOMALY":275.3777,"EPHEMERIS_TYPE":0,"CLASSIFICATION_TYPE":"U","NORAD_CAT_ID":51629,"ELEMENT_SET_NO":999,"REV_AT_EPOCH":21051,"BSTAR":0.0053952,"MEAN_MOTION_DOT":1.896e-5,"MEAN_MOTION_DDOT":0},{"OBJECT_NAME":"ONEWEB-0431","OBJECT_ID":"2022-012J","EPOCH":"2026-06-26T14:26:52.501056","MEAN_MOTION":13.10361766,"ECCENTRICITY":0.0002343,"INCLINATION":87.8822,"RA_OF_ASC_NODE":34.3911,"ARG_OF_PERICENTER":147.3842,"MEAN_ANOMALY":212.743,"EPHEMERIS_TYPE":0,"CLASSIFICATION_TYPE":"U","NORAD_CAT_ID":51630,"ELEMENT_SET_NO":999,"REV_AT_EPOCH":21057,"BSTAR":0.0063245,"MEAN_MOTION_DOT":2.221e-5,"MEAN_MOTION_DDOT":0},{"OBJECT_NAME":"ONEWEB-0434","OBJECT_ID":"2022-012K","EPOCH":"2026-06-26T13:55:30.542304","MEAN_MOTION":13.10363657,"ECCENTRICITY":0.0002143,"INCLINATION":87.883,"RA_OF_ASC_NODE":34.4216,"ARG_OF_PERICENTER":66.443,"MEAN_ANOMALY":293.6923,"EPHEMERIS_TYPE":0,"CLASSIFICATION_TYPE":"U","NORAD_CAT_ID":51631,"ELEMENT_SET_NO":999,"REV_AT_EPOCH":21055,"BSTAR":0.0040201,"MEAN_MOTION_DOT":1.416e-5,"MEAN_MOTION_DDOT":0},{"OBJECT_NAME":"ONEWEB-0435","OBJECT_ID":"2022-012L","EPOCH":"2026-06-26T14:05:04.282368","MEAN_MOTION":13.10382802,"ECCENTRICITY":0.0001624,"INCLINATION":87.8821,"RA_OF_ASC_NODE":34.4046,"ARG_OF_PERICENTER":95.2894,"MEAN_ANOMALY":264.8419,"EPHEMERIS_TYPE":0,"CLASSIFICATION_TYPE":"U","NORAD_CAT_ID":51632,"ELEMENT_SET_NO":999,"REV_AT_EPOCH":21054,"BSTAR":-0.0023689,"MEAN_MOTION_DOT":-8.14e-6,"MEAN_MOTION_DDOT":0},{"OBJECT_NAME":"ONEWEB-0436","OBJECT_ID":"2022-012M","EPOCH":"2026-06-26T11:26:03.213312","MEAN_MOTION":13.17649517,"ECCENTRICITY":0.0001711,"INCLINATION":87.9139,"RA_OF_ASC_NODE":3.9979,"ARG_OF_PERICENTER":94.6865,"MEAN_ANOMALY":265.4462,"EPHEMERIS_TYPE":0,"CLASSIFICATION_TYPE":"U","NORAD_CAT_ID":51633,"ELEMENT_SET_NO":999,"REV_AT_EPOCH":21490,"BSTAR":0.00011829,"MEAN_MOTION_DOT":5.9e-7,"MEAN_MOTION_DDOT":0},{"OBJECT_NAME":"ONEWEB-0438","OBJECT_ID":"2022-012N","EPOCH":"2026-06-26T13:43:07.586976","MEAN_MOTION":13.10363855,"ECCENTRICITY":0.0001982,"INCLINATION":87.8824,"RA_OF_ASC_NODE":34.4119,"ARG_OF_PERICENTER":80.4047,"MEAN_ANOMALY":279.7305,"EPHEMERIS_TYPE":0,"CLASSIFICATION_TYPE":"U","NORAD_CAT_ID":51634,"ELEMENT_SET_NO":999,"REV_AT_EPOCH":21057,"BSTAR":0.0062746,"MEAN_MOTION_DOT":2.203e-5,"MEAN_MOTION_DDOT":0},{"OBJECT_NAME":"ONEWEB-0439","OBJECT_ID":"2022-012P","EPOCH":"2026-06-26T13:47:58.297920","MEAN_MOTION":13.10463662,"ECCENTRICITY":0.0001514,"INCLINATION":87.8828,"RA_OF_ASC_NODE":34.3987,"ARG_OF_PERICENTER":61.9572,"MEAN_ANOMALY":298.1708,"EPHEMERIS_TYPE":0,"CLASSIFICATION_TYPE":"U","NORAD_CAT_ID":51635,"ELEMENT_SET_NO":999,"REV_AT_EPOCH":21055,"BSTAR":-0.052735,"MEAN_MOTION_DOT":-0.00018384,"MEAN_MOTION_DDOT":0},{"OBJECT_NAME":"ONEWEB-0442","OBJECT_ID":"2022-012Q","EPOCH":"2026-06-26T18:32:32.354016","MEAN_MOTION":13.17644166,"ECCENTRICITY":0.0002143,"INCLINATION":87.913,"RA_OF_ASC_NODE":3.9713,"ARG_OF_PERICENTER":77.8021,"MEAN_ANOMALY":282.335,"EPHEMERIS_TYPE":0,"CLASSIFICATION_TYPE":"U","NORAD_CAT_ID":51636,"ELEMENT_SET_NO":999,"REV_AT_EPOCH":21493,"BSTAR":0.0017551,"MEAN_MOTION_DOT":6.94e-6,"MEAN_MOTION_DDOT":0},{"OBJECT_NAME":"ONEWEB-0443","OBJECT_ID":"2022-012R","EPOCH":"2026-06-26T11:43:03.141120","MEAN_MOTION":13.17650258,"ECCENTRICITY":0.0001645,"INCLINATION":87.9129,"RA_OF_ASC_NODE":4.0287,"ARG_OF_PERICENTER":80.681,"MEAN_ANOMALY":279.4507,"EPHEMERIS_TYPE":0,"CLASSIFICATION_TYPE":"U","NORAD_CAT_ID":51637,"ELEMENT_SET_NO":999,"REV_AT_EPOCH":21494,"BSTAR":0.00011214,"MEAN_MOTION_DOT":5.6e-7,"MEAN_MOTION_DDOT":0}]
